[{"OBJECT_NAME":"STARLINK-35677","OBJECT_ID":"2025-244Q","EPOCH":"2026-03-09T22:55:59.653056","MEAN_MOTION":15.30198726,"ECCENTRICITY":0.00016907,"INCLINATION":53.1596,"RA_OF_ASC_NODE":228.4321,"ARG_OF_PERICENTER":54.0385,"MEAN_ANOMALY":306.0772,"EPHEMERIS_TYPE":0,"CLASSIFICATION_TYPE":"U","NORAD_CAT_ID":66220,"ELEMENT_SET_NO":999,"REV_AT_EPOCH":2170,"BSTAR":0.0011877651,"MEAN_MOTION_DOT":0.00034984,"MEAN_MOTION_DDOT":0},{"OBJECT_NAME":"GLOBAL-34","OBJECT_ID":"2026-043A","EPOCH":"2026-03-09T11:23:30.999840","MEAN_MOTION":15.31488019,"ECCENTRICITY":0.00068849,"INCLINATION":42.0215,"RA_OF_ASC_NODE":76.7399,"ARG_OF_PERICENTER":289.2632,"MEAN_ANOMALY":70.746,"EPHEMERIS_TYPE":0,"CLASSIFICATION_TYPE":"U","NORAD_CAT_ID":68098,"ELEMENT_SET_NO":999,"REV_AT_EPOCH":53,"BSTAR":0.00045822046,"MEAN_MOTION_DOT":0.00014018,"MEAN_MOTION_DDOT":0}]
